{"type": "FeatureCollection", "name": "gha_admincapitals", "bbox": [-3.1, 4.853057, 1.147222, 11.058056], "features": [{"type": "Feature", "geometry": {"type": "Point", "coordinates": [-0.983333, 6.3]}, "properties": {"adm_p_lvl": 2, "name": "Aberem", "x_coord": -0.983333, "y_coord": 6.3, "adm3_name": "<Null>", "adm3_pcode": "<Null>", "adm2_name": "Birim North", "adm2_pcode": "GH0613", "adm1_name": "Eastern", "adm1_pcode": "GH06", "adm0_name": "Ghana", "adm0_pcode": "GH", "valid_on": "20210308", "version": "v01"}}, {"type": "Feature", "geometry": {"type": "Point", "coordinates": [-0.75, 6.666667]}, "properties": {"adm_p_lvl": 2, "name": "Abetife", "x_coord": -0.75, "y_coord": 6.666667, "adm3_name": "<Null>", "adm3_pcode": "<Null>", "adm2_name": "Kwahu East", "adm2_pcode": "GH0621", "adm1_name": "Eastern", "adm1_pcode": "GH06", "adm0_name": "Ghana", "adm0_pcode": "GH", "valid_on": "20210308", "version": "v01"}}, {"type": "Feature", "geometry": {"type": "Point", "coordinates": [-0.2, 5.733333]}, "properties": {"adm_p_lvl": 2, "name": "Abokobi", "x_coord": -0.2, "y_coord": 5.733333, "adm3_name": "<Null>", "adm3_pcode": "<Null>", "adm2_name": "Ga East", "adm2_pcode": "GH0714", "adm1_name": "Greater Accra", "adm1_pcode": "GH07", "adm0_name": "Ghana", "adm0_pcode": "GH", "valid_on": "20210308", "version": "v01"}}, {"type": "Feature", "geometry": {"type": "Point", "coordinates": [-1.166667, 5.333333]}, "properties": {"adm_p_lvl": 2, "name": "Abura Dunkwa", "x_coord": -1.166667, "y_coord": 5.333333, "adm3_name": "<Null>", "adm3_pcode": "<Null>", "adm2_name": "Abura-Asebu-Kwamankese", "adm2_pcode": "GH0501", "adm1_name": "Central", "adm1_pcode": "GH05", "adm0_name": "Ghana", "adm0_pcode": "GH", "valid_on": "20210308", "version": "v01"}}, {"type": "Feature", "geometry": {"type": "Point", "coordinates": [-0.216667, 5.55]}, "properties": {"adm_p_lvl": 0, "name": "Accra", "x_coord": -0.216667, "y_coord": 5.55, "adm3_name": "<Null>", "adm3_pcode": "<Null>", "adm2_name": "Accra Metropolis", "adm2_pcode": "GH0704", "adm1_name": "Greater Accra", "adm1_pcode": "GH07", "adm0_name": "Ghana", "adm0_pcode": "GH", "valid_on": "20210308", "version": "v01"}}, {"type": "Feature", "geometry": {"type": "Point", "coordinates": [0.633333, 5.783333]}, "properties": {"adm_p_lvl": 2, "name": "Ada Foah", "x_coord": 0.633333, "y_coord": 5.783333, "adm3_name": "<Null>", "adm3_pcode": "<Null>", "adm2_name": "Ada East", "adm2_pcode": "GH0705", "adm1_name": "Greater Accra", "adm1_pcode": "GH07", "adm0_name": "Ghana", "adm0_pcode": "GH", "valid_on": "20210308", "version": "v01"}}, {"type": "Feature", "geometry": {"type": "Point", "coordinates": [0.633333, 6.45]}, "properties": {"adm_p_lvl": 2, "name": "Adaklu Waya", "x_coord": 0.633333, "y_coord": 6.45, "adm3_name": "<Null>", "adm3_pcode": "<Null>", "adm2_name": "Adaklu", "adm2_pcode": "GH1401", "adm1_name": "Volta", "adm1_pcode": "GH14", "adm0_name": "Ghana", "adm0_pcode": "GH", "valid_on": "20210308", "version": "v01"}}, {"type": "Feature", "geometry": {"type": "Point", "coordinates": [-0.166667, 5.7]}, "properties": {"adm_p_lvl": 2, "name": "Adentan", "x_coord": -0.166667, "y_coord": 5.7, "adm3_name": "<Null>", "adm3_pcode": "<Null>", "adm2_name": "Adenta Municipal", "adm2_pcode": "GH0707", "adm1_name": "Greater Accra", "adm1_pcode": "GH07", "adm0_name": "Ghana", "adm0_pcode": "GH", "valid_on": "20210308", "version": "v01"}}, {"type": "Feature", "geometry": {"type": "Point", "coordinates": [0.516667, 6.066667]}, "properties": {"adm_p_lvl": 2, "name": "Adidome", "x_coord": 0.516667, "y_coord": 6.066667, "adm3_name": "<Null>", "adm3_pcode": "<Null>", "adm2_name": "Central Tongu", "adm2_pcode": "GH1407", "adm1_name": "Volta", "adm1_pcode": "GH14", "adm0_name": "Ghana", "adm0_pcode": "GH", "valid_on": "20210308", "version": "v01"}}, {"type": "Feature", "geometry": {"type": "Point", "coordinates": [-3.016667, 6.816667]}, "properties": {"adm_p_lvl": 2, "name": "Adowkrom", "x_coord": -3.016667, "y_coord": 6.816667, "adm3_name": "<Null>", "adm3_pcode": "<Null>", "adm2_name": "Bia East", "adm2_pcode": "GH1602", "adm1_name": "Western North", "adm1_pcode": "GH16", "adm0_name": "Ghana", "adm0_pcode": "GH", "valid_on": "20210308", "version": "v01"}}, {"type": "Feature", "geometry": {"type": "Point", "coordinates": [-0.75, 5.516667]}, "properties": {"adm_p_lvl": 2, "name": "Afranse", "x_coord": -0.75, "y_coord": 5.516667, "adm3_name": "<Null>", "adm3_pcode": "<Null>", "adm2_name": "Gomoa East", "adm2_pcode": "GH0515", "adm1_name": "Central", "adm1_pcode": "GH05", "adm0_name": "Ghana", "adm0_pcode": "GH", "valid_on": "20210308", "version": "v01"}}, {"type": "Feature", "geometry": {"type": "Point", "coordinates": [-1.966667, 4.9]}, "properties": {"adm_p_lvl": 2, "name": "Agona", "x_coord": -1.966667, "y_coord": 4.9, "adm3_name": "<Null>", "adm3_pcode": "<Null>", "adm2_name": "Ahanta West Municipal", "adm2_pcode": "GH1501", "adm1_name": "Western", "adm1_pcode": "GH15", "adm0_name": "Ghana", "adm0_pcode": "GH", "valid_on": "20210308", "version": "v01"}}, {"type": "Feature", "geometry": {"type": "Point", "coordinates": [-1.483333, 6.933333]}, "properties": {"adm_p_lvl": 2, "name": "Agona", "x_coord": -1.483333, "y_coord": 6.933333, "adm3_name": "<Null>", "adm3_pcode": "<Null>", "adm2_name": "Sekyere South", "adm2_pcode": "GH0242", "adm1_name": "Ashanti", "adm1_pcode": "GH02", "adm0_name": "Ghana", "adm0_pcode": "GH", "valid_on": "20210308", "version": "v01"}}, {"type": "Feature", "geometry": {"type": "Point", "coordinates": [-1.483333, 6.933333]}, "properties": {"adm_p_lvl": 2, "name": "Agona Ashanti", "x_coord": -1.483333, "y_coord": 6.933333, "adm3_name": "<Null>", "adm3_pcode": "<Null>", "adm2_name": "Sekyere South", "adm2_pcode": "GH0242", "adm1_name": "Ashanti", "adm1_pcode": "GH02", "adm0_name": "Ghana", "adm0_pcode": "GH", "valid_on": "20210308", "version": "v01"}}, {"type": "Feature", "geometry": {"type": "Point", "coordinates": [-0.7, 5.533333]}, "properties": {"adm_p_lvl": 2, "name": "Agona Swedru", "x_coord": -0.7, "y_coord": 5.533333, "adm3_name": "<Null>", "adm3_pcode": "<Null>", "adm2_name": "Agona West Municipal", "adm2_pcode": "GH0503", "adm1_name": "Central", "adm1_pcode": "GH05", "adm0_name": "Ghana", "adm0_pcode": "GH", "valid_on": "20210308", "version": "v01"}}, {"type": "Feature", "geometry": {"type": "Point", "coordinates": [-0.95, 5.416667]}, "properties": {"adm_p_lvl": 2, "name": "Ajumako", "x_coord": -0.95, "y_coord": 5.416667, "adm3_name": "<Null>", "adm3_pcode": "<Null>", "adm2_name": "Ajumako-Enyan-Essiam", "adm2_pcode": "GH0504", "adm1_name": "Central", "adm1_pcode": "GH05", "adm0_name": "Ghana", "adm0_pcode": "GH", "valid_on": "20210308", "version": "v01"}}, {"type": "Feature", "geometry": {"type": "Point", "coordinates": [0.8, 6.116667]}, "properties": {"adm_p_lvl": 2, "name": "Akachi", "x_coord": 0.8, "y_coord": 6.116667, "adm3_name": "<Null>", "adm3_pcode": "<Null>", "adm2_name": "Akatsi South", "adm2_pcode": "GH1405", "adm1_name": "Volta", "adm1_pcode": "GH14", "adm0_name": "Ghana", "adm0_pcode": "GH", "valid_on": "20210308", "version": "v01"}}, {"type": "Feature", "geometry": {"type": "Point", "coordinates": [-0.983333, 5.916667]}, "properties": {"adm_p_lvl": 2, "name": "Akim Oda", "x_coord": -0.983333, "y_coord": 5.916667, "adm3_name": "<Null>", "adm3_pcode": "<Null>", "adm2_name": "Birim Central Municipal", "adm2_pcode": "GH0612", "adm1_name": "Eastern", "adm1_pcode": "GH06", "adm0_name": "Ghana", "adm0_pcode": "GH", "valid_on": "20210308", "version": "v01"}}, {"type": "Feature", "geometry": {"type": "Point", "coordinates": [-1.016667, 5.9]}, "properties": {"adm_p_lvl": 2, "name": "Akim Swedru", "x_coord": -1.016667, "y_coord": 5.9, "adm3_name": "<Null>", "adm3_pcode": "<Null>", "adm2_name": "Birim South", "adm2_pcode": "GH0614", "adm1_name": "Eastern", "adm1_pcode": "GH06", "adm0_name": "Ghana", "adm0_pcode": "GH", "valid_on": "20210308", "version": "v01"}}, {"type": "Feature", "geometry": {"type": "Point", "coordinates": [-1.95, 7.4]}, "properties": {"adm_p_lvl": 2, "name": "Akomada", "x_coord": -1.95, "y_coord": 7.4, "adm3_name": "<Null>", "adm3_pcode": "<Null>", "adm2_name": "Offinso North", "adm2_pcode": "GH0235", "adm1_name": "Ashanti", "adm1_pcode": "GH02", "adm0_name": "Ghana", "adm0_pcode": "GH", "valid_on": "20210308", "version": "v01"}}, {"type": "Feature", "geometry": {"type": "Point", "coordinates": [-2.083333, 5.783333]}, "properties": {"adm_p_lvl": 2, "name": "Akropong", "x_coord": -2.083333, "y_coord": 5.783333, "adm3_name": "<Null>", "adm3_pcode": "<Null>", "adm2_name": "Wassa Amenfi East", "adm2_pcode": "GH1512", "adm1_name": "Western", "adm1_pcode": "GH15", "adm0_name": "Ghana", "adm0_pcode": "GH", "valid_on": "20210308", "version": "v01"}}, {"type": "Feature", "geometry": {"type": "Point", "coordinates": [-0.083333, 5.966667]}, "properties": {"adm_p_lvl": 2, "name": "Akropong", "x_coord": -0.083333, "y_coord": 5.966667, "adm3_name": "<Null>", "adm3_pcode": "<Null>", "adm2_name": "Akwapem North", "adm2_pcode": "GH0604", "adm1_name": "Eastern", "adm1_pcode": "GH06", "adm0_name": "Ghana", "adm0_pcode": "GH", "valid_on": "20210308", "version": "v01"}}, {"type": "Feature", "geometry": {"type": "Point", "coordinates": [-2.883333, 6.05]}, "properties": {"adm_p_lvl": 2, "name": "Akwantambra", "x_coord": -2.883333, "y_coord": 6.05, "adm3_name": "<Null>", "adm3_pcode": "<Null>", "adm2_name": "Sefwi Akontombra", "adm2_pcode": "GH1607", "adm1_name": "Western North", "adm1_pcode": "GH16", "adm0_name": "Ghana", "adm0_pcode": "GH", "valid_on": "20210308", "version": "v01"}}, {"type": "Feature", "geometry": {"type": "Point", "coordinates": [-0.3, 5.7]}, "properties": {"adm_p_lvl": 2, "name": "Amasaman", "x_coord": -0.3, "y_coord": 5.7, "adm3_name": "<Null>", "adm3_pcode": "<Null>", "adm2_name": "Ga North Municipal", "adm2_pcode": "GH0715", "adm1_name": "Greater Accra", "adm1_pcode": "GH07", "adm0_name": "Ghana", "adm0_pcode": "GH", "valid_on": "20210308", "version": "v01"}}, {"type": "Feature", "geometry": {"type": "Point", "coordinates": [0.3, 6.883333]}, "properties": {"adm_p_lvl": 2, "name": "Anfoega Akukome", "x_coord": 0.3, "y_coord": 6.883333, "adm3_name": "<Null>", "adm3_pcode": "<Null>", "adm2_name": "North Dayi", "adm2_pcode": "GH1415", "adm1_name": "Volta", "adm1_pcode": "GH14", "adm0_name": "Ghana", "adm0_pcode": "GH", "valid_on": "20210308", "version": "v01"}}, {"type": "Feature", "geometry": {"type": "Point", "coordinates": [-0.733333, 5.283333]}, "properties": {"adm_p_lvl": 2, "name": "Apam", "x_coord": -0.733333, "y_coord": 5.283333, "adm3_name": "<Null>", "adm3_pcode": "<Null>", "adm2_name": "Gomoa Central", "adm2_pcode": "GH0514", "adm1_name": "Central", "adm1_pcode": "GH05", "adm0_name": "Ghana", "adm0_pcode": "GH", "valid_on": "20210308", "version": "v01"}}, {"type": "Feature", "geometry": {"type": "Point", "coordinates": [-0.666667, 5.866667]}, "properties": {"adm_p_lvl": 2, "name": "Asamankese", "x_coord": -0.666667, "y_coord": 5.866667, "adm3_name": "<Null>", "adm3_pcode": "<Null>", "adm2_name": "West Akim", "adm2_pcode": "GH0632", "adm1_name": "Eastern", "adm1_pcode": "GH06", "adm0_name": "Ghana", "adm0_pcode": "GH", "valid_on": "20210308", "version": "v01"}}, {"type": "Feature", "geometry": {"type": "Point", "coordinates": [-2.433333, 5.8]}, "properties": {"adm_p_lvl": 2, "name": "Asankrangwa", "x_coord": -2.433333, "y_coord": 5.8, "adm3_name": "<Null>", "adm3_pcode": "<Null>", "adm2_name": "Wassa Amenfi West", "adm2_pcode": "GH1513", "adm1_name": "Western", "adm1_pcode": "GH15", "adm0_name": "Ghana", "adm0_pcode": "GH", "valid_on": "20210308", "version": "v01"}}, {"type": "Feature", "geometry": {"type": "Point", "coordinates": [-0.133333, 6.383333]}, "properties": {"adm_p_lvl": 2, "name": "Asesewa", "x_coord": -0.133333, "y_coord": 6.383333, "adm3_name": "<Null>", "adm3_pcode": "<Null>", "adm2_name": "Upper Manya", "adm2_pcode": "GH0630", "adm1_name": "Eastern", "adm1_pcode": "GH06", "adm0_name": "Ghana", "adm0_pcode": "GH", "valid_on": "20210308", "version": "v01"}}, {"type": "Feature", "geometry": {"type": "Point", "coordinates": [-0.216667, 5.7]}, "properties": {"adm_p_lvl": 2, "name": "Ashonman", "x_coord": -0.216667, "y_coord": 5.7, "adm3_name": "<Null>", "adm3_pcode": "<Null>", "adm2_name": "Ga East", "adm2_pcode": "GH0714", "adm1_name": "Greater Accra", "adm1_pcode": "GH07", "adm0_name": "Ghana", "adm0_pcode": "GH", "valid_on": "20210308", "version": "v01"}}, {"type": "Feature", "geometry": {"type": "Point", "coordinates": [-1.0, 5.583333]}, "properties": {"adm_p_lvl": 2, "name": "Asikuma", "x_coord": -1.0, "y_coord": 5.583333, "adm3_name": "<Null>", "adm3_pcode": "<Null>", "adm2_name": "Asikuma-Odoben-Brakwa", "adm2_pcode": "GH0505", "adm1_name": "Central", "adm1_pcode": "GH05", "adm0_name": "Ghana", "adm0_pcode": "GH", "valid_on": "20210308", "version": "v01"}}, {"type": "Feature", "geometry": {"type": "Point", "coordinates": [-1.283333, 5.75]}, "properties": {"adm_p_lvl": 2, "name": "Asin", "x_coord": -1.283333, "y_coord": 5.75, "adm3_name": "<Null>", "adm3_pcode": "<Null>", "adm2_name": "Assin Fosu", "adm2_pcode": "GH0506", "adm1_name": "Central", "adm1_pcode": "GH05", "adm0_name": "Ghana", "adm0_pcode": "GH", "valid_on": "20210308", "version": "v01"}}, {"type": "Feature", "geometry": {"type": "Point", "coordinates": [-1.166667, 5.516667]}, "properties": {"adm_p_lvl": 2, "name": "Asin Manso", "x_coord": -1.166667, "y_coord": 5.516667, "adm3_name": "<Null>", "adm3_pcode": "<Null>", "adm2_name": "Assin South", "adm2_pcode": "GH0508", "adm1_name": "Central", "adm1_pcode": "GH05", "adm0_name": "Ghana", "adm0_pcode": "GH", "valid_on": "20210308", "version": "v01"}}, {"type": "Feature", "geometry": {"type": "Point", "coordinates": [-1.333333, 6.416667]}, "properties": {"adm_p_lvl": 2, "name": "Asiwa", "x_coord": -1.333333, "y_coord": 6.416667, "adm3_name": "<Null>", "adm3_pcode": "<Null>", "adm2_name": "Bosome Freho", "adm2_pcode": "GH0223", "adm1_name": "Ashanti", "adm1_pcode": "GH02", "adm0_name": "Ghana", "adm0_pcode": "GH", "valid_on": "20210308", "version": "v01"}}, {"type": "Feature", "geometry": {"type": "Point", "coordinates": [-0.983333, 7.75]}, "properties": {"adm_p_lvl": 2, "name": "Atebubu", "x_coord": -0.983333, "y_coord": 7.75, "adm3_name": "<Null>", "adm3_pcode": "<Null>", "adm2_name": "Atebubu Amantin", "adm2_pcode": "GH0401", "adm1_name": "Bono East", "adm1_pcode": "GH04", "adm0_name": "Ghana", "adm0_pcode": "GH", "valid_on": "20210308", "version": "v01"}}, {"type": "Feature", "geometry": {"type": "Point", "coordinates": [0.1, 6.233333]}, "properties": {"adm_p_lvl": 2, "name": "Atempoku", "x_coord": 0.1, "y_coord": 6.233333, "adm3_name": "<Null>", "adm3_pcode": "<Null>", "adm2_name": "Asuogyaman", "adm2_pcode": "GH0608", "adm1_name": "Eastern", "adm1_pcode": "GH06", "adm0_name": "Ghana", "adm0_pcode": "GH", "valid_on": "20210308", "version": "v01"}}, {"type": "Feature", "geometry": {"type": "Point", "coordinates": [-0.516667, 5.5]}, "properties": {"adm_p_lvl": 2, "name": "Awutu", "x_coord": -0.516667, "y_coord": 5.5, "adm3_name": "<Null>", "adm3_pcode": "<Null>", "adm2_name": "Gomoa East", "adm2_pcode": "GH0515", "adm1_name": "Central", "adm1_pcode": "GH05", "adm0_name": "Ghana", "adm0_pcode": "GH", "valid_on": "20210308", "version": "v01"}}, {"type": "Feature", "geometry": {"type": "Point", "coordinates": [-2.241389, 4.868333]}, "properties": {"adm_p_lvl": 2, "name": "Axim", "x_coord": -2.241389, "y_coord": 4.868333, "adm3_name": "<Null>", "adm3_pcode": "<Null>", "adm2_name": "Nzema East", "adm2_pcode": "GH1506", "adm1_name": "Western", "adm1_pcode": "GH15", "adm0_name": "Ghana", "adm0_pcode": "GH", "valid_on": "20210308", "version": "v01"}}, {"type": "Feature", "geometry": {"type": "Point", "coordinates": [0.383333, 6.083333]}, "properties": {"adm_p_lvl": 2, "name": "Batorwugodzi", "x_coord": 0.383333, "y_coord": 6.083333, "adm3_name": "<Null>", "adm3_pcode": "<Null>", "adm2_name": "North Tongu", "adm2_pcode": "GH1416", "adm1_name": "Volta", "adm1_pcode": "GH14", "adm0_name": "Ghana", "adm0_pcode": "GH", "valid_on": "20210308", "version": "v01"}}, {"type": "Feature", "geometry": {"type": "Point", "coordinates": [-0.241667, 11.058056]}, "properties": {"adm_p_lvl": 2, "name": "Bawku", "x_coord": -0.241667, "y_coord": 11.058056, "adm3_name": "<Null>", "adm3_pcode": "<Null>", "adm2_name": "Bawku Municipal", "adm2_pcode": "GH1201", "adm1_name": "Upper East", "adm1_pcode": "GH12", "adm0_name": "Ghana", "adm0_pcode": "GH", "valid_on": "20210308", "version": "v01"}}, {"type": "Feature", "geometry": {"type": "Point", "coordinates": [-2.033333, 7.083333]}, "properties": {"adm_p_lvl": 2, "name": "Bechem", "x_coord": -2.033333, "y_coord": 7.083333, "adm3_name": "<Null>", "adm3_pcode": "<Null>", "adm2_name": "Tano South Municipal", "adm2_pcode": "GH0106", "adm1_name": "Ahafo", "adm1_pcode": "GH01", "adm0_name": "Ghana", "adm0_pcode": "GH", "valid_on": "20210308", "version": "v01"}}, {"type": "Feature", "geometry": {"type": "Point", "coordinates": [-0.383333, 6.383333]}, "properties": {"adm_p_lvl": 2, "name": "Begoro", "x_coord": -0.383333, "y_coord": 6.383333, "adm3_name": "<Null>", "adm3_pcode": "<Null>", "adm2_name": "Fanteakwa North", "adm2_pcode": "GH0616", "adm1_name": "Eastern", "adm1_pcode": "GH06", "adm0_name": "Ghana", "adm0_pcode": "GH", "valid_on": "20210308", "version": "v01"}}, {"type": "Feature", "geometry": {"type": "Point", "coordinates": [-1.583333, 6.45]}, "properties": {"adm_p_lvl": 2, "name": "Bekwai", "x_coord": -1.583333, "y_coord": 6.45, "adm3_name": "<Null>", "adm3_pcode": "<Null>", "adm2_name": "Bekwai Municipal", "adm2_pcode": "GH0222", "adm1_name": "Ashanti", "adm1_pcode": "GH02", "adm0_name": "Ghana", "adm0_pcode": "GH", "valid_on": "20210308", "version": "v01"}}, {"type": "Feature", "geometry": {"type": "Point", "coordinates": [-2.583333, 7.45]}, "properties": {"adm_p_lvl": 2, "name": "Berekum", "x_coord": -2.583333, "y_coord": 7.45, "adm3_name": "<Null>", "adm3_pcode": "<Null>", "adm2_name": "Berekum East Municipal", "adm2_pcode": "GH0302", "adm1_name": "Bono", "adm1_pcode": "GH03", "adm0_name": "Ghana", "adm0_pcode": "GH", "valid_on": "20210308", "version": "v01"}}, {"type": "Feature", "geometry": {"type": "Point", "coordinates": [-2.333333, 6.466667]}, "properties": {"adm_p_lvl": 2, "name": "Bibiani", "x_coord": -2.333333, "y_coord": 6.466667, "adm3_name": "<Null>", "adm3_pcode": "<Null>", "adm2_name": "Bibiani-Anhwiaso-Bekwai Municipal", "adm2_pcode": "GH1604", "adm1_name": "Western North", "adm1_pcode": "GH16", "adm0_name": "Ghana", "adm0_pcode": "GH", "valid_on": "20210308", "version": "v01"}}, {"type": "Feature", "geometry": {"type": "Point", "coordinates": [0.066667, 8.85]}, "properties": {"adm_p_lvl": 2, "name": "Bimbila", "x_coord": 0.066667, "y_coord": 8.85, "adm3_name": "<Null>", "adm3_pcode": "<Null>", "adm2_name": "Nanumba South", "adm2_pcode": "GH0808", "adm1_name": "Northern", "adm1_pcode": "GH08", "adm0_name": "Ghana", "adm0_pcode": "GH", "valid_on": "20210308", "version": "v01"}}, {"type": "Feature", "geometry": {"type": "Point", "coordinates": [-2.75, 6.216667]}, "properties": {"adm_p_lvl": 2, "name": "Bodi", "x_coord": -2.75, "y_coord": 6.216667, "adm3_name": "<Null>", "adm3_pcode": "<Null>", "adm2_name": "Bodi", "adm2_pcode": "GH1605", "adm1_name": "Western North", "adm1_pcode": "GH16", "adm0_name": "Ghana", "adm0_pcode": "GH", "valid_on": "20210308", "version": "v01"}}, {"type": "Feature", "geometry": {"type": "Point", "coordinates": [-2.016667, 5.566667]}, "properties": {"adm_p_lvl": 2, "name": "Bogoso", "x_coord": -2.016667, "y_coord": 5.566667, "adm3_name": "<Null>", "adm3_pcode": "<Null>", "adm2_name": "Prestea/Huni Valley", "adm2_pcode": "GH1507", "adm1_name": "Western", "adm1_pcode": "GH15", "adm0_name": "Ghana", "adm0_pcode": "GH", "valid_on": "20210308", "version": "v01"}}, {"type": "Feature", "geometry": {"type": "Point", "coordinates": [-0.851389, 10.785556]}, "properties": {"adm_p_lvl": 1, "name": "Bolagatanga", "x_coord": -0.851389, "y_coord": 10.785556, "adm3_name": "<Null>", "adm3_pcode": "<Null>", "adm2_name": "Bolgatanga Municipal", "adm2_pcode": "GH1205", "adm1_name": "Upper East", "adm1_pcode": "GH12", "adm0_name": "Ghana", "adm0_pcode": "GH", "valid_on": "20210308", "version": "v01"}}, {"type": "Feature", "geometry": {"type": "Point", "coordinates": [-2.483333, 9.033333]}, "properties": {"adm_p_lvl": 2, "name": "Bole", "x_coord": -2.483333, "y_coord": 9.033333, "adm3_name": "<Null>", "adm3_pcode": "<Null>", "adm2_name": "Bole", "adm2_pcode": "GH1101", "adm1_name": "Savannah", "adm1_pcode": "GH11", "adm0_name": "Ghana", "adm0_pcode": "GH", "valid_on": "20210308", "version": "v01"}}, {"type": "Feature", "geometry": {"type": "Point", "coordinates": [-0.808056, 10.907778]}, "properties": {"adm_p_lvl": 2, "name": "Bongo", "x_coord": -0.808056, "y_coord": 10.907778, "adm3_name": "<Null>", "adm3_pcode": "<Null>", "adm2_name": "Bongo", "adm2_pcode": "GH1206", "adm1_name": "Upper East", "adm1_pcode": "GH12", "adm0_name": "Ghana", "adm0_pcode": "GH", "valid_on": "20210308", "version": "v01"}}, {"type": "Feature", "geometry": {"type": "Point", "coordinates": [-1.533333, 8.783333]}, "properties": {"adm_p_lvl": 2, "name": "Buipe", "x_coord": -1.533333, "y_coord": 8.783333, "adm3_name": "<Null>", "adm3_pcode": "<Null>", "adm2_name": "Central Gonja", "adm2_pcode": "GH1102", "adm1_name": "Savannah", "adm1_pcode": "GH11", "adm0_name": "Ghana", "adm0_pcode": "GH", "valid_on": "20210308", "version": "v01"}}, {"type": "Feature", "geometry": {"type": "Point", "coordinates": [0.096389, 10.519167]}, "properties": {"adm_p_lvl": 2, "name": "Bunkpurk", "x_coord": 0.096389, "y_coord": 10.519167, "adm3_name": "<Null>", "adm3_pcode": "<Null>", "adm2_name": "Bunkpurugu Nakpanduri", "adm2_pcode": "GH0901", "adm1_name": "Northern East", "adm1_pcode": "GH09", "adm0_name": "Ghana", "adm0_pcode": "GH", "valid_on": "20210308", "version": "v01"}}, {"type": "Feature", "geometry": {"type": "Point", "coordinates": [-1.666667, 7.683333]}, "properties": {"adm_p_lvl": 2, "name": "Busunya", "x_coord": -1.666667, "y_coord": 7.683333, "adm3_name": "<Null>", "adm3_pcode": "<Null>", "adm2_name": "Nkoranza North", "adm2_pcode": "GH0404", "adm1_name": "Bono East", "adm1_pcode": "GH04", "adm0_name": "Ghana", "adm0_pcode": "GH", "valid_on": "20210308", "version": "v01"}}, {"type": "Feature", "geometry": {"type": "Point", "coordinates": [-1.3, 5.183333]}, "properties": {"adm_p_lvl": 1, "name": "Cape Coast", "x_coord": -1.3, "y_coord": 5.183333, "adm3_name": "<Null>", "adm3_pcode": "<Null>", "adm2_name": "Cape Coast Metropolitan", "adm2_pcode": "GH0511", "adm1_name": "Central", "adm1_pcode": "GH05", "adm0_name": "Ghana", "adm0_pcode": "GH", "valid_on": "20210308", "version": "v01"}}, {"type": "Feature", "geometry": {"type": "Point", "coordinates": [0.288056, 10.134167]}, "properties": {"adm_p_lvl": 2, "name": "Chereponi", "x_coord": 0.288056, "y_coord": 10.134167, "adm3_name": "<Null>", "adm3_pcode": "<Null>", "adm2_name": "Chereponi", "adm2_pcode": "GH0902", "adm1_name": "Northern East", "adm1_pcode": "GH09", "adm0_name": "Ghana", "adm0_pcode": "GH", "valid_on": "20210308", "version": "v01"}}, {"type": "Feature", "geometry": {"type": "Point", "coordinates": [-0.15, 8.133333]}, "properties": {"adm_p_lvl": 2, "name": "Chiadiri", "x_coord": -0.15, "y_coord": 8.133333, "adm3_name": "<Null>", "adm3_pcode": "<Null>", "adm2_name": "Krachi Nchumuru", "adm2_pcode": "GH1005", "adm1_name": "Oti", "adm1_pcode": "GH10", "adm0_name": "Ghana", "adm0_pcode": "GH", "valid_on": "20210308", "version": "v01"}}, {"type": "Feature", "geometry": {"type": "Point", "coordinates": [-1.65, 5.133333]}, "properties": {"adm_p_lvl": 2, "name": "Daboase", "x_coord": -1.65, "y_coord": 5.133333, "adm3_name": "<Null>", "adm3_pcode": "<Null>", "adm2_name": "Wassa East", "adm2_pcode": "GH1514", "adm1_name": "Western", "adm1_pcode": "GH15", "adm0_name": "Ghana", "adm0_pcode": "GH", "valid_on": "20210308", "version": "v01"}}, {"type": "Feature", "geometry": {"type": "Point", "coordinates": [0.85, 6.366667]}, "properties": {"adm_p_lvl": 2, "name": "Dakpa", "x_coord": 0.85, "y_coord": 6.366667, "adm3_name": "<Null>", "adm3_pcode": "<Null>", "adm2_name": "Akatsi North", "adm2_pcode": "GH1404", "adm1_name": "Volta", "adm1_pcode": "GH14", "adm0_name": "Ghana", "adm0_pcode": "GH", "valid_on": "20210308", "version": "v01"}}, {"type": "Feature", "geometry": {"type": "Point", "coordinates": [0.233333, 8.066667]}, "properties": {"adm_p_lvl": 2, "name": "Dambai", "x_coord": 0.233333, "y_coord": 8.066667, "adm3_name": "<Null>", "adm3_pcode": "<Null>", "adm2_name": "Krachi East Municipal", "adm2_pcode": "GH1004", "adm1_name": "Oti", "adm1_pcode": "GH10", "adm0_name": "Ghana", "adm0_pcode": "GH", "valid_on": "20210308", "version": "v01"}}, {"type": "Feature", "geometry": {"type": "Point", "coordinates": [-1.816667, 9.083333]}, "properties": {"adm_p_lvl": 2, "name": "Damongo", "x_coord": -1.816667, "y_coord": 9.083333, "adm3_name": "<Null>", "adm3_pcode": "<Null>", "adm2_name": "West Gonja", "adm2_pcode": "GH1107", "adm1_name": "Savannah", "adm1_pcode": "GH11", "adm0_name": "Ghana", "adm0_pcode": "GH", "valid_on": "20210308", "version": "v01"}}, {"type": "Feature", "geometry": {"type": "Point", "coordinates": [1.147222, 6.098611]}, "properties": {"adm_p_lvl": 2, "name": "Dano", "x_coord": 1.147222, "y_coord": 6.098611, "adm3_name": "<Null>", "adm3_pcode": "<Null>", "adm2_name": "Ketu South", "adm2_pcode": "GH1413", "adm1_name": "Volta", "adm1_pcode": "GH14", "adm0_name": "Ghana", "adm0_pcode": "GH", "valid_on": "20210308", "version": "v01"}}, {"type": "Feature", "geometry": {"type": "Point", "coordinates": [-2.15, 6.15]}, "properties": {"adm_p_lvl": 2, "name": "Deaso", "x_coord": -2.15, "y_coord": 6.15, "adm3_name": "<Null>", "adm3_pcode": "<Null>", "adm2_name": "Upper Denkyira West", "adm2_pcode": "GH0522", "adm1_name": "Central", "adm1_pcode": "GH05", "adm0_name": "Ghana", "adm0_pcode": "GH", "valid_on": "20210308", "version": "v01"}}, {"type": "Feature", "geometry": {"type": "Point", "coordinates": [-0.116667, 5.883333]}, "properties": {"adm_p_lvl": 2, "name": "Dodowa", "x_coord": -0.116667, "y_coord": 5.883333, "adm3_name": "<Null>", "adm3_pcode": "<Null>", "adm2_name": "Shai Osudoku", "adm2_pcode": "GH0726", "adm1_name": "Greater Accra", "adm1_pcode": "GH07", "adm0_name": "Ghana", "adm0_pcode": "GH", "valid_on": "20210308", "version": "v01"}}, {"type": "Feature", "geometry": {"type": "Point", "coordinates": [-2.883333, 7.283333]}, "properties": {"adm_p_lvl": 2, "name": "Dormaa Ahenkro", "x_coord": -2.883333, "y_coord": 7.283333, "adm3_name": "<Null>", "adm3_pcode": "<Null>", "adm2_name": "Dormaa Municipal", "adm2_pcode": "GH0305", "adm1_name": "Bono", "adm1_pcode": "GH03", "adm0_name": "Ghana", "adm0_pcode": "GH", "valid_on": "20210308", "version": "v01"}}, {"type": "Feature", "geometry": {"type": "Point", "coordinates": [-2.1, 7.166667]}, "properties": {"adm_p_lvl": 2, "name": "Duayaw Nkwanta", "x_coord": -2.1, "y_coord": 7.166667, "adm3_name": "<Null>", "adm3_pcode": "<Null>", "adm2_name": "Tano North Municipal", "adm2_pcode": "GH0105", "adm1_name": "Ahafo", "adm1_pcode": "GH01", "adm0_name": "Ghana", "adm0_pcode": "GH", "valid_on": "20210308", "version": "v01"}}, {"type": "Feature", "geometry": {"type": "Point", "coordinates": [-1.783333, 5.966667]}, "properties": {"adm_p_lvl": 2, "name": "Dunkwa", "x_coord": -1.783333, "y_coord": 5.966667, "adm3_name": "<Null>", "adm3_pcode": "<Null>", "adm2_name": "Upper Denkyira East Municipal", "adm2_pcode": "GH0521", "adm1_name": "Central", "adm1_pcode": "GH05", "adm0_name": "Ghana", "adm0_pcode": "GH", "valid_on": "20210308", "version": "v01"}}, {"type": "Feature", "geometry": {"type": "Point", "coordinates": [1.001111, 6.232222]}, "properties": {"adm_p_lvl": 2, "name": "Dzodze", "x_coord": 1.001111, "y_coord": 6.232222, "adm3_name": "<Null>", "adm3_pcode": "<Null>", "adm2_name": "Ketu North", "adm2_pcode": "GH1412", "adm1_name": "Volta", "adm1_pcode": "GH14", "adm0_name": "Ghana", "adm0_pcode": "GH", "valid_on": "20210308", "version": "v01"}}, {"type": "Feature", "geometry": {"type": "Point", "coordinates": [0.433333, 6.8]}, "properties": {"adm_p_lvl": 2, "name": "Dzolokpuita", "x_coord": 0.433333, "y_coord": 6.8, "adm3_name": "<Null>", "adm3_pcode": "<Null>", "adm2_name": "Ho West", "adm2_pcode": "GH1409", "adm1_name": "Volta", "adm1_pcode": "GH14", "adm0_name": "Ghana", "adm0_pcode": "GH", "valid_on": "20210308", "version": "v01"}}, {"type": "Feature", "geometry": {"type": "Point", "coordinates": [-1.35, 5.083333]}, "properties": {"adm_p_lvl": 2, "name": "Edina", "x_coord": -1.35, "y_coord": 5.083333, "adm3_name": "<Null>", "adm3_pcode": "<Null>", "adm2_name": "Komenda-Edina-Eguafo-Abirem Municipal", "adm2_pcode": "GH0517", "adm1_name": "Central", "adm1_pcode": "GH05", "adm0_name": "Ghana", "adm0_pcode": "GH", "valid_on": "20210308", "version": "v01"}}, {"type": "Feature", "geometry": {"type": "Point", "coordinates": [-1.4, 6.85]}, "properties": {"adm_p_lvl": 2, "name": "Efiduasi", "x_coord": -1.4, "y_coord": 6.85, "adm3_name": "<Null>", "adm3_pcode": "<Null>", "adm2_name": "Sekyere East", "adm2_pcode": "GH0240", "adm1_name": "Ashanti", "adm1_pcode": "GH02", "adm0_name": "Ghana", "adm0_pcode": "GH", "valid_on": "20210308", "version": "v01"}}, {"type": "Feature", "geometry": {"type": "Point", "coordinates": [-1.316667, 5.4]}, "properties": {"adm_p_lvl": 2, "name": "Ejisu", "x_coord": -1.316667, "y_coord": 5.4, "adm3_name": "<Null>", "adm3_pcode": "<Null>", "adm2_name": "Assin South", "adm2_pcode": "GH0508", "adm1_name": "Central", "adm1_pcode": "GH05", "adm0_name": "Ghana", "adm0_pcode": "GH", "valid_on": "20210308", "version": "v01"}}, {"type": "Feature", "geometry": {"type": "Point", "coordinates": [-1.366667, 7.383333]}, "properties": {"adm_p_lvl": 2, "name": "Ejura", "x_coord": -1.366667, "y_coord": 7.383333, "adm3_name": "<Null>", "adm3_pcode": "<Null>", "adm2_name": "Ejura-Sekyedumase", "adm2_pcode": "GH0226", "adm1_name": "Ashanti", "adm1_pcode": "GH02", "adm0_name": "Ghana", "adm0_pcode": "GH", "valid_on": "20210308", "version": "v01"}}, {"type": "Feature", "geometry": {"type": "Point", "coordinates": [-2.816667, 5.816667]}, "properties": {"adm_p_lvl": 2, "name": "Enchi", "x_coord": -2.816667, "y_coord": 5.816667, "adm3_name": "<Null>", "adm3_pcode": "<Null>", "adm2_name": "Aowin", "adm2_pcode": "GH1601", "adm1_name": "Western North", "adm1_pcode": "GH16", "adm0_name": "Ghana", "adm0_pcode": "GH", "valid_on": "20210308", "version": "v01"}}, {"type": "Feature", "geometry": {"type": "Point", "coordinates": [-3.1, 6.666667]}, "properties": {"adm_p_lvl": 2, "name": "Esem", "x_coord": -3.1, "y_coord": 6.666667, "adm3_name": "<Null>", "adm3_pcode": "<Null>", "adm2_name": "Bia West", "adm2_pcode": "GH1603", "adm1_name": "Western North", "adm1_pcode": "GH16", "adm0_name": "Ghana", "adm0_pcode": "GH", "valid_on": "20210308", "version": "v01"}}, {"type": "Feature", "geometry": {"type": "Point", "coordinates": [-1.516667, 6.283333]}, "properties": {"adm_p_lvl": 2, "name": "Fomana", "x_coord": -1.516667, "y_coord": 6.283333, "adm3_name": "<Null>", "adm3_pcode": "<Null>", "adm2_name": "Adansi North", "adm2_pcode": "GH0203", "adm1_name": "Ashanti", "adm1_pcode": "GH02", "adm0_name": "Ghana", "adm0_pcode": "GH", "valid_on": "20210308", "version": "v01"}}, {"type": "Feature", "geometry": {"type": "Point", "coordinates": [-1.971111, 10.288611]}, "properties": {"adm_p_lvl": 2, "name": "Funsi", "x_coord": -1.971111, "y_coord": 10.288611, "adm3_name": "<Null>", "adm3_pcode": "<Null>", "adm2_name": "Wa East", "adm2_pcode": "GH1309", "adm1_name": "Upper West", "adm1_pcode": "GH13", "adm0_name": "Ghana", "adm0_pcode": "GH", "valid_on": "20210308", "version": "v01"}}, {"type": "Feature", "geometry": {"type": "Point", "coordinates": [-0.183333, 10.85]}, "properties": {"adm_p_lvl": 2, "name": "Garu", "x_coord": -0.183333, "y_coord": 10.85, "adm3_name": "<Null>", "adm3_pcode": "<Null>", "adm2_name": "Garu", "adm2_pcode": "GH1209", "adm1_name": "Upper East", "adm1_pcode": "GH12", "adm0_name": "Ghana", "adm0_pcode": "GH", "valid_on": "20210308", "version": "v01"}}, {"type": "Feature", "geometry": {"type": "Point", "coordinates": [-2.516667, 6.8]}, "properties": {"adm_p_lvl": 2, "name": "Gawso", "x_coord": -2.516667, "y_coord": 6.8, "adm3_name": "<Null>", "adm3_pcode": "<Null>", "adm2_name": "Asunafo North Municipal", "adm2_pcode": "GH0101", "adm1_name": "Ahafo", "adm1_pcode": "GH01", "adm0_name": "Ghana", "adm0_pcode": "GH", "valid_on": "20210308", "version": "v01"}}, {"type": "Feature", "geometry": {"type": "Point", "coordinates": [0.466667, 7.4]}, "properties": {"adm_p_lvl": 2, "name": "Gjasekang", "x_coord": 0.466667, "y_coord": 7.4, "adm3_name": "<Null>", "adm3_pcode": "<Null>", "adm2_name": "Biakoye", "adm2_pcode": "GH1001", "adm1_name": "Oti", "adm1_pcode": "GH10", "adm0_name": "Ghana", "adm0_pcode": "GH", "valid_on": "20210308", "version": "v01"}}, {"type": "Feature", "geometry": {"type": "Point", "coordinates": [-0.15, 10.333333]}, "properties": {"adm_p_lvl": 2, "name": "Gogonga", "x_coord": -0.15, "y_coord": 10.333333, "adm3_name": "<Null>", "adm3_pcode": "<Null>", "adm2_name": "East Mamprusi", "adm2_pcode": "GH0903", "adm1_name": "Northern East", "adm1_pcode": "GH09", "adm0_name": "Ghana", "adm0_pcode": "GH", "valid_on": "20210308", "version": "v01"}}, {"type": "Feature", "geometry": {"type": "Point", "coordinates": [-2.233333, 10.983333]}, "properties": {"adm_p_lvl": 2, "name": "Gollu", "x_coord": -2.233333, "y_coord": 10.983333, "adm3_name": "<Null>", "adm3_pcode": "<Null>", "adm2_name": "Sissala West", "adm2_pcode": "GH1308", "adm1_name": "Upper West", "adm1_pcode": "GH13", "adm0_name": "Ghana", "adm0_pcode": "GH", "valid_on": "20210308", "version": "v01"}}, {"type": "Feature", "geometry": {"type": "Point", "coordinates": [0.433333, 7.0]}, "properties": {"adm_p_lvl": 2, "name": "Golokwali", "x_coord": 0.433333, "y_coord": 7.0, "adm3_name": "<Null>", "adm3_pcode": "<Null>", "adm2_name": "Afadzato South", "adm2_pcode": "GH1402", "adm1_name": "Volta", "adm1_pcode": "GH14", "adm0_name": "Ghana", "adm0_pcode": "GH", "valid_on": "20210308", "version": "v01"}}, {"type": "Feature", "geometry": {"type": "Point", "coordinates": [-0.218056, 9.919167]}, "properties": {"adm_p_lvl": 2, "name": "Guschiegu", "x_coord": -0.218056, "y_coord": 9.919167, "adm3_name": "<Null>", "adm3_pcode": "<Null>", "adm2_name": "Gushegu", "adm2_pcode": "GH0801", "adm1_name": "Northern", "adm1_pcode": "GH08", "adm0_name": "Ghana", "adm0_pcode": "GH", "valid_on": "20210308", "version": "v01"}}, {"type": "Feature", "geometry": {"type": "Point", "coordinates": [-2.883333, 5.05]}, "properties": {"adm_p_lvl": 2, "name": "Half Assini", "x_coord": -2.883333, "y_coord": 5.05, "adm3_name": "<Null>", "adm3_pcode": "<Null>", "adm2_name": "Jomoro", "adm2_pcode": "GH1504", "adm1_name": "Western", "adm1_pcode": "GH15", "adm0_name": "Ghana", "adm0_pcode": "GH", "valid_on": "20210308", "version": "v01"}}, {"type": "Feature", "geometry": {"type": "Point", "coordinates": [0.533333, 6.783333]}, "properties": {"adm_p_lvl": 2, "name": "Hoe", "x_coord": 0.533333, "y_coord": 6.783333, "adm3_name": "<Null>", "adm3_pcode": "<Null>", "adm2_name": "Ho Municipal", "adm2_pcode": "GH1408", "adm1_name": "Volta", "adm1_pcode": "GH14", "adm0_name": "Ghana", "adm0_pcode": "GH", "valid_on": "20210308", "version": "v01"}}, {"type": "Feature", "geometry": {"type": "Point", "coordinates": [0.466667, 7.15]}, "properties": {"adm_p_lvl": 2, "name": "Hohoe", "x_coord": 0.466667, "y_coord": 7.15, "adm3_name": "<Null>", "adm3_pcode": "<Null>", "adm2_name": "Hohoe Municipal", "adm2_pcode": "GH1410", "adm1_name": "Volta", "adm1_pcode": "GH14", "adm0_name": "Ghana", "adm0_pcode": "GH", "valid_on": "20210308", "version": "v01"}}, {"type": "Feature", "geometry": {"type": "Point", "coordinates": [-2.333333, 10.383333]}, "properties": {"adm_p_lvl": 2, "name": "Issa", "x_coord": -2.333333, "y_coord": 10.383333, "adm3_name": "<Null>", "adm3_pcode": "<Null>", "adm2_name": "Daffiama Bussie Issa", "adm2_pcode": "GH1301", "adm1_name": "Upper West", "adm1_pcode": "GH13", "adm0_name": "Ghana", "adm0_pcode": "GH", "valid_on": "20210308", "version": "v01"}}, {"type": "Feature", "geometry": {"type": "Point", "coordinates": [-2.833333, 6.333333]}, "properties": {"adm_p_lvl": 2, "name": "Jabeso", "x_coord": -2.833333, "y_coord": 6.333333, "adm3_name": "<Null>", "adm3_pcode": "<Null>", "adm2_name": "Juaboso", "adm2_pcode": "GH1606", "adm1_name": "Western North", "adm1_pcode": "GH16", "adm0_name": "Ghana", "adm0_pcode": "GH", "valid_on": "20210308", "version": "v01"}}, {"type": "Feature", "geometry": {"type": "Point", "coordinates": [-1.666667, 6.35]}, "properties": {"adm_p_lvl": 2, "name": "Jakobo", "x_coord": -1.666667, "y_coord": 6.35, "adm3_name": "<Null>", "adm3_pcode": "<Null>", "adm2_name": "Amansie Central", "adm2_pcode": "GH0210", "adm1_name": "Ashanti", "adm1_pcode": "GH02", "adm0_name": "Ghana", "adm0_pcode": "GH", "valid_on": "20210308", "version": "v01"}}, {"type": "Feature", "geometry": {"type": "Point", "coordinates": [-2.75, 5.833333]}, "properties": {"adm_p_lvl": 2, "name": "Jema", "x_coord": -2.75, "y_coord": 5.833333, "adm3_name": "<Null>", "adm3_pcode": "<Null>", "adm2_name": "Aowin", "adm2_pcode": "GH1601", "adm1_name": "Western North", "adm1_pcode": "GH16", "adm0_name": "Ghana", "adm0_pcode": "GH", "valid_on": "20210308", "version": "v01"}}, {"type": "Feature", "geometry": {"type": "Point", "coordinates": [-0.016667, 9.433333]}, "properties": {"adm_p_lvl": 2, "name": "Jendi", "x_coord": -0.016667, "y_coord": 9.433333, "adm3_name": "<Null>", "adm3_pcode": "<Null>", "adm2_name": "Yendi Municipal", "adm2_pcode": "GH0815", "adm1_name": "Northern", "adm1_pcode": "GH08", "adm0_name": "Ghana", "adm0_pcode": "GH", "valid_on": "20210308", "version": "v01"}}, {"type": "Feature", "geometry": {"type": "Point", "coordinates": [-2.7, 10.533333]}, "properties": {"adm_p_lvl": 2, "name": "Jirapa", "x_coord": -2.7, "y_coord": 10.533333, "adm3_name": "<Null>", "adm3_pcode": "<Null>", "adm2_name": "Jirapa", "adm2_pcode": "GH1302", "adm1_name": "Upper West", "adm1_pcode": "GH13", "adm0_name": "Ghana", "adm0_pcode": "GH", "valid_on": "20210308", "version": "v01"}}, {"type": "Feature", "geometry": {"type": "Point", "coordinates": [-1.133333, 6.6]}, "properties": {"adm_p_lvl": 2, "name": "Juaso", "x_coord": -1.133333, "y_coord": 6.6, "adm3_name": "<Null>", "adm3_pcode": "<Null>", "adm2_name": "Asante Akim South", "adm2_pcode": "GH0215", "adm1_name": "Ashanti", "adm1_pcode": "GH02", "adm0_name": "Ghana", "adm0_pcode": "GH", "valid_on": "20210308", "version": "v01"}}, {"type": "Feature", "geometry": {"type": "Point", "coordinates": [-0.833333, 6.083333]}, "properties": {"adm_p_lvl": 2, "name": "Kade", "x_coord": -0.833333, "y_coord": 6.083333, "adm3_name": "<Null>", "adm3_pcode": "<Null>", "adm2_name": "Kwaebibirem", "adm2_pcode": "GH0618", "adm1_name": "Eastern", "adm1_pcode": "GH06", "adm0_name": "Ghana", "adm0_pcode": "GH", "valid_on": "20210308", "version": "v01"}}, {"type": "Feature", "geometry": {"type": "Point", "coordinates": [0.466667, 7.533333]}, "properties": {"adm_p_lvl": 2, "name": "Kadjebi", "x_coord": 0.466667, "y_coord": 7.533333, "adm3_name": "<Null>", "adm3_pcode": "<Null>", "adm2_name": "Kadjebi", "adm2_pcode": "GH1003", "adm1_name": "Oti", "adm1_pcode": "GH10", "adm0_name": "Ghana", "adm0_pcode": "GH", "valid_on": "20210308", "version": "v01"}}, {"type": "Feature", "geometry": {"type": "Point", "coordinates": [-0.433333, 9.916667]}, "properties": {"adm_p_lvl": 2, "name": "Karaga", "x_coord": -0.433333, "y_coord": 9.916667, "adm3_name": "<Null>", "adm3_pcode": "<Null>", "adm2_name": "Karaga", "adm2_pcode": "GH0802", "adm1_name": "Northern", "adm1_pcode": "GH08", "adm0_name": "Ghana", "adm0_pcode": "GH", "valid_on": "20210308", "version": "v01"}}, {"type": "Feature", "geometry": {"type": "Point", "coordinates": [-2.383333, 6.983333]}, "properties": {"adm_p_lvl": 2, "name": "Kenyasi", "x_coord": -2.383333, "y_coord": 6.983333, "adm3_name": "<Null>", "adm3_pcode": "<Null>", "adm2_name": "Asutifi North", "adm2_pcode": "GH0103", "adm1_name": "Ahafo", "adm1_pcode": "GH01", "adm0_name": "Ghana", "adm0_pcode": "GH", "valid_on": "20210308", "version": "v01"}}, {"type": "Feature", "geometry": {"type": "Point", "coordinates": [0.983333, 5.916667]}, "properties": {"adm_p_lvl": 2, "name": "Keta", "x_coord": 0.983333, "y_coord": 5.916667, "adm3_name": "<Null>", "adm3_pcode": "<Null>", "adm2_name": "Keta Municipal", "adm2_pcode": "GH1411", "adm1_name": "Volta", "adm1_pcode": "GH14", "adm0_name": "Ghana", "adm0_pcode": "GH", "valid_on": "20210308", "version": "v01"}}, {"type": "Feature", "geometry": {"type": "Point", "coordinates": [-0.016667, 7.8]}, "properties": {"adm_p_lvl": 2, "name": "Kete Krachi", "x_coord": -0.016667, "y_coord": 7.8, "adm3_name": "<Null>", "adm3_pcode": "<Null>", "adm2_name": "Krachi West", "adm2_pcode": "GH1006", "adm1_name": "Oti", "adm1_pcode": "GH10", "adm0_name": "Ghana", "adm0_pcode": "GH", "valid_on": "20210308", "version": "v01"}}, {"type": "Feature", "geometry": {"type": "Point", "coordinates": [-0.55, 6.166667]}, "properties": {"adm_p_lvl": 2, "name": "Kibbi", "x_coord": -0.55, "y_coord": 6.166667, "adm3_name": "<Null>", "adm3_pcode": "<Null>", "adm2_name": "Abuakwa South", "adm2_pcode": "GH0602", "adm1_name": "Eastern", "adm1_pcode": "GH06", "adm0_name": "Ghana", "adm0_pcode": "GH", "valid_on": "20210308", "version": "v01"}}, {"type": "Feature", "geometry": {"type": "Point", "coordinates": [-1.716667, 8.05]}, "properties": {"adm_p_lvl": 2, "name": "Kintampo", "x_coord": -1.716667, "y_coord": 8.05, "adm3_name": "<Null>", "adm3_pcode": "<Null>", "adm2_name": "Kintampo North Municipal", "adm2_pcode": "GH0402", "adm1_name": "Bono East", "adm1_pcode": "GH04", "adm0_name": "Ghana", "adm0_pcode": "GH", "valid_on": "20210308", "version": "v01"}}, {"type": "Feature", "geometry": {"type": "Point", "coordinates": [-0.25, 6.083333]}, "properties": {"adm_p_lvl": 1, "name": "Koforidua", "x_coord": -0.25, "y_coord": 6.083333, "adm3_name": "<Null>", "adm3_pcode": "<Null>", "adm2_name": "New Juaben South Municipal", "adm2_pcode": "GH0626", "adm1_name": "Eastern", "adm1_pcode": "GH06", "adm0_name": "Ghana", "adm0_pcode": "GH", "valid_on": "20210308", "version": "v01"}}, {"type": "Feature", "geometry": {"type": "Point", "coordinates": [-1.716667, 6.616667]}, "properties": {"adm_p_lvl": 2, "name": "Kokoben", "x_coord": -1.716667, "y_coord": 6.616667, "adm3_name": "<Null>", "adm3_pcode": "<Null>", "adm2_name": "Atwima Kwanwoma", "adm2_pcode": "GH0218", "adm1_name": "Ashanti", "adm1_pcode": "GH02", "adm0_name": "Ghana", "adm0_pcode": "GH", "valid_on": "20210308", "version": "v01"}}, {"type": "Feature", "geometry": {"type": "Point", "coordinates": [-1.216667, 6.616667]}, "properties": {"adm_p_lvl": 2, "name": "Konongo", "x_coord": -1.216667, "y_coord": 6.616667, "adm3_name": "<Null>", "adm3_pcode": "<Null>", "adm2_name": "Asante Akim Central Municipal", "adm2_pcode": "GH0213", "adm1_name": "Ashanti", "adm1_pcode": "GH02", "adm0_name": "Ghana", "adm0_pcode": "GH", "valid_on": "20210308", "version": "v01"}}, {"type": "Feature", "geometry": {"type": "Point", "coordinates": [-0.016667, 8.466667]}, "properties": {"adm_p_lvl": 2, "name": "Kpandae", "x_coord": -0.016667, "y_coord": 8.466667, "adm3_name": "<Null>", "adm3_pcode": "<Null>", "adm2_name": "Kpandai", "adm2_pcode": "GH0803", "adm1_name": "Northern", "adm1_pcode": "GH08", "adm0_name": "Ghana", "adm0_pcode": "GH", "valid_on": "20210308", "version": "v01"}}, {"type": "Feature", "geometry": {"type": "Point", "coordinates": [0.3, 7.0]}, "properties": {"adm_p_lvl": 2, "name": "Kpandu", "x_coord": 0.3, "y_coord": 7.0, "adm3_name": "<Null>", "adm3_pcode": "<Null>", "adm2_name": "Kpando Municipal", "adm2_pcode": "GH1414", "adm1_name": "Volta", "adm1_pcode": "GH14", "adm0_name": "Ghana", "adm0_pcode": "GH", "valid_on": "20210308", "version": "v01"}}, {"type": "Feature", "geometry": {"type": "Point", "coordinates": [0.7, 6.55]}, "properties": {"adm_p_lvl": 2, "name": "Kpetoe", "x_coord": 0.7, "y_coord": 6.55, "adm3_name": "<Null>", "adm3_pcode": "<Null>", "adm2_name": "Agotime Ziope", "adm2_pcode": "GH1403", "adm1_name": "Volta", "adm1_pcode": "GH14", "adm0_name": "Ghana", "adm0_pcode": "GH", "valid_on": "20210308", "version": "v01"}}, {"type": "Feature", "geometry": {"type": "Point", "coordinates": [-2.45, 6.683333]}, "properties": {"adm_p_lvl": 2, "name": "Kukuom", "x_coord": -2.45, "y_coord": 6.683333, "adm3_name": "<Null>", "adm3_pcode": "<Null>", "adm2_name": "Asunafo South", "adm2_pcode": "GH0102", "adm1_name": "Ahafo", "adm1_pcode": "GH01", "adm0_name": "Ghana", "adm0_pcode": "GH", "valid_on": "20210308", "version": "v01"}}, {"type": "Feature", "geometry": {"type": "Point", "coordinates": [-1.616667, 6.683333]}, "properties": {"adm_p_lvl": 1, "name": "Kumasi", "x_coord": -1.616667, "y_coord": 6.683333, "adm3_name": "<Null>", "adm3_pcode": "<Null>", "adm2_name": "Kumasi Metropolitan", "adm2_pcode": "GH0228", "adm1_name": "Ashanti", "adm1_pcode": "GH02", "adm0_name": "Ghana", "adm0_pcode": "GH", "valid_on": "20210308", "version": "v01"}}, {"type": "Feature", "geometry": {"type": "Point", "coordinates": [-1.283333, 6.9]}, "properties": {"adm_p_lvl": 2, "name": "Kumawu", "x_coord": -1.283333, "y_coord": 6.9, "adm3_name": "<Null>", "adm3_pcode": "<Null>", "adm2_name": "Sekyere Kumawu", "adm2_pcode": "GH0241", "adm1_name": "Ashanti", "adm1_pcode": "GH02", "adm0_name": "Ghana", "adm0_pcode": "GH", "valid_on": "20210308", "version": "v01"}}, {"type": "Feature", "geometry": {"type": "Point", "coordinates": [-0.916667, 5.616667]}, "properties": {"adm_p_lvl": 2, "name": "Kuntanase", "x_coord": -0.916667, "y_coord": 5.616667, "adm3_name": "<Null>", "adm3_pcode": "<Null>", "adm2_name": "Asikuma-Odoben-Brakwa", "adm2_pcode": "GH0505", "adm1_name": "Central", "adm1_pcode": "GH05", "adm0_name": "Ghana", "adm0_pcode": "GH", "valid_on": "20210308", "version": "v01"}}, {"type": "Feature", "geometry": {"type": "Point", "coordinates": [-0.583333, 6.316667]}, "properties": {"adm_p_lvl": 2, "name": "Kwabeng", "x_coord": -0.583333, "y_coord": 6.316667, "adm3_name": "<Null>", "adm3_pcode": "<Null>", "adm2_name": "Atiwa West", "adm2_pcode": "GH0610", "adm1_name": "Eastern", "adm1_pcode": "GH06", "adm0_name": "Ghana", "adm0_pcode": "GH", "valid_on": "20210308", "version": "v01"}}, {"type": "Feature", "geometry": {"type": "Point", "coordinates": [-0.666667, 7.733333]}, "properties": {"adm_p_lvl": 2, "name": "Kwame Danso", "x_coord": -0.666667, "y_coord": 7.733333, "adm3_name": "<Null>", "adm3_pcode": "<Null>", "adm2_name": "Sene West", "adm2_pcode": "GH0409", "adm1_name": "Bono East", "adm1_pcode": "GH04", "adm0_name": "Ghana", "adm0_pcode": "GH", "valid_on": "20210308", "version": "v01"}}, {"type": "Feature", "geometry": {"type": "Point", "coordinates": [-2.7, 10.833333]}, "properties": {"adm_p_lvl": 2, "name": "Lambusie", "x_coord": -2.7, "y_coord": 10.833333, "adm3_name": "<Null>", "adm3_pcode": "<Null>", "adm2_name": "Lambussie-Karni", "adm2_pcode": "GH1303", "adm1_name": "Upper West", "adm1_pcode": "GH13", "adm0_name": "Ghana", "adm0_pcode": "GH", "valid_on": "20210308", "version": "v01"}}, {"type": "Feature", "geometry": {"type": "Point", "coordinates": [-2.866667, 10.65]}, "properties": {"adm_p_lvl": 2, "name": "Lawra", "x_coord": -2.866667, "y_coord": 10.65, "adm3_name": "<Null>", "adm3_pcode": "<Null>", "adm2_name": "Lawra", "adm2_pcode": "GH1304", "adm1_name": "Upper West", "adm1_pcode": "GH13", "adm0_name": "Ghana", "adm0_pcode": "GH", "valid_on": "20210308", "version": "v01"}}, {"type": "Feature", "geometry": {"type": "Point", "coordinates": [-1.4, 7.066667]}, "properties": {"adm_p_lvl": 2, "name": "Mampong", "x_coord": -1.4, "y_coord": 7.066667, "adm3_name": "<Null>", "adm3_pcode": "<Null>", "adm2_name": "Mampong Municipal", "adm2_pcode": "GH0231", "adm1_name": "Ashanti", "adm1_pcode": "GH02", "adm0_name": "Ghana", "adm0_pcode": "GH", "valid_on": "20210308", "version": "v01"}}, {"type": "Feature", "geometry": {"type": "Point", "coordinates": [-1.566667, 6.783333]}, "properties": {"adm_p_lvl": 2, "name": "Mampongtin", "x_coord": -1.566667, "y_coord": 6.783333, "adm3_name": "<Null>", "adm3_pcode": "<Null>", "adm2_name": "Kwabre East", "adm2_pcode": "GH0229", "adm1_name": "Ashanti", "adm1_pcode": "GH02", "adm0_name": "Ghana", "adm0_pcode": "GH", "valid_on": "20210308", "version": "v01"}}, {"type": "Feature", "geometry": {"type": "Point", "coordinates": [-1.866667, 6.816667]}, "properties": {"adm_p_lvl": 2, "name": "Mankrangso", "x_coord": -1.866667, "y_coord": 6.816667, "adm3_name": "<Null>", "adm3_pcode": "<Null>", "adm2_name": "Ahafo Ano South East", "adm2_pcode": "GH0208", "adm1_name": "Ashanti", "adm1_pcode": "GH02", "adm0_name": "Ghana", "adm0_pcode": "GH", "valid_on": "20210308", "version": "v01"}}, {"type": "Feature", "geometry": {"type": "Point", "coordinates": [-1.883333, 6.466667]}, "properties": {"adm_p_lvl": 2, "name": "Manso Nkwanta", "x_coord": -1.883333, "y_coord": 6.466667, "adm3_name": "<Null>", "adm3_pcode": "<Null>", "adm2_name": "Amansie West", "adm2_pcode": "GH0212", "adm1_name": "Ashanti", "adm1_pcode": "GH02", "adm0_name": "Ghana", "adm0_pcode": "GH", "valid_on": "20210308", "version": "v01"}}, {"type": "Feature", "geometry": {"type": "Point", "coordinates": [-1.9, 4.966667]}, "properties": {"adm_p_lvl": 2, "name": "Mpohor", "x_coord": -1.9, "y_coord": 4.966667, "adm3_name": "<Null>", "adm3_pcode": "<Null>", "adm2_name": "Mpohor", "adm2_pcode": "GH1505", "adm1_name": "Western", "adm1_pcode": "GH15", "adm0_name": "Ghana", "adm0_pcode": "GH", "valid_on": "20210308", "version": "v01"}}, {"type": "Feature", "geometry": {"type": "Point", "coordinates": [-0.733333, 6.583333]}, "properties": {"adm_p_lvl": 2, "name": "Mpraeso", "x_coord": -0.733333, "y_coord": 6.583333, "adm3_name": "<Null>", "adm3_pcode": "<Null>", "adm2_name": "Kwahu South", "adm2_pcode": "GH0622", "adm1_name": "Eastern", "adm1_pcode": "GH06", "adm0_name": "Ghana", "adm0_pcode": "GH", "valid_on": "20210308", "version": "v01"}}, {"type": "Feature", "geometry": {"type": "Point", "coordinates": [-2.65, 10.366667]}, "properties": {"adm_p_lvl": 2, "name": "Nadawli", "x_coord": -2.65, "y_coord": 10.366667, "adm3_name": "<Null>", "adm3_pcode": "<Null>", "adm2_name": "Nadowli-Kaleo", "adm2_pcode": "GH1305", "adm1_name": "Upper West", "adm1_pcode": "GH13", "adm0_name": "Ghana", "adm0_pcode": "GH", "valid_on": "20210308", "version": "v01"}}, {"type": "Feature", "geometry": {"type": "Point", "coordinates": [-0.375278, 10.524722]}, "properties": {"adm_p_lvl": 1, "name": "Nalerigu", "x_coord": -0.375278, "y_coord": 10.524722, "adm3_name": "<Null>", "adm3_pcode": "<Null>", "adm2_name": "East Mamprusi", "adm2_pcode": "GH0903", "adm1_name": "Northern East", "adm1_pcode": "GH09", "adm0_name": "Ghana", "adm0_pcode": "GH", "valid_on": "20210308", "version": "v01"}}, {"type": "Feature", "geometry": {"type": "Point", "coordinates": [-2.75, 10.85]}, "properties": {"adm_p_lvl": 2, "name": "Nandom", "x_coord": -2.75, "y_coord": 10.85, "adm3_name": "<Null>", "adm3_pcode": "<Null>", "adm2_name": "Nandom", "adm2_pcode": "GH1306", "adm1_name": "Upper West", "adm1_pcode": "GH13", "adm0_name": "Ghana", "adm0_pcode": "GH", "valid_on": "20210308", "version": "v01"}}, {"type": "Feature", "geometry": {"type": "Point", "coordinates": [-1.093889, 10.895]}, "properties": {"adm_p_lvl": 2, "name": "Navrongo", "x_coord": -1.093889, "y_coord": 10.895, "adm3_name": "<Null>", "adm3_pcode": "<Null>", "adm2_name": "Kasena Nankana East", "adm2_pcode": "GH1210", "adm1_name": "Upper East", "adm1_pcode": "GH12", "adm0_name": "Ghana", "adm0_pcode": "GH", "valid_on": "20210308", "version": "v01"}}, {"type": "Feature", "geometry": {"type": "Point", "coordinates": [-2.85, 7.65]}, "properties": {"adm_p_lvl": 2, "name": "New Drobo", "x_coord": -2.85, "y_coord": 7.65, "adm3_name": "<Null>", "adm3_pcode": "<Null>", "adm2_name": "Jaman South Municipal", "adm2_pcode": "GH0308", "adm1_name": "Bono", "adm1_pcode": "GH03", "adm0_name": "Ghana", "adm0_pcode": "GH", "valid_on": "20210308", "version": "v01"}}, {"type": "Feature", "geometry": {"type": "Point", "coordinates": [-1.4, 6.066667]}, "properties": {"adm_p_lvl": 2, "name": "New Edubiase", "x_coord": -1.4, "y_coord": 6.066667, "adm3_name": "<Null>", "adm3_pcode": "<Null>", "adm2_name": "Adansi South", "adm2_pcode": "GH0204", "adm1_name": "Ashanti", "adm1_pcode": "GH02", "adm0_name": "Ghana", "adm0_pcode": "GH", "valid_on": "20210308", "version": "v01"}}, {"type": "Feature", "geometry": {"type": "Point", "coordinates": [-1.816667, 6.666667]}, "properties": {"adm_p_lvl": 2, "name": "Nkawie", "x_coord": -1.816667, "y_coord": 6.666667, "adm3_name": "<Null>", "adm3_pcode": "<Null>", "adm2_name": "Atwima Nwabiagya South", "adm2_pcode": "GH0221", "adm1_name": "Ashanti", "adm1_pcode": "GH02", "adm0_name": "Ghana", "adm0_pcode": "GH", "valid_on": "20210308", "version": "v01"}}, {"type": "Feature", "geometry": {"type": "Point", "coordinates": [-0.766667, 6.55]}, "properties": {"adm_p_lvl": 2, "name": "Nkawkaw", "x_coord": -0.766667, "y_coord": 6.55, "adm3_name": "<Null>", "adm3_pcode": "<Null>", "adm2_name": "Kwahu West", "adm2_pcode": "GH0623", "adm1_name": "Eastern", "adm1_pcode": "GH06", "adm0_name": "Ghana", "adm0_pcode": "GH", "valid_on": "20210308", "version": "v01"}}, {"type": "Feature", "geometry": {"type": "Point", "coordinates": [0.316667, 7.116667]}, "properties": {"adm_p_lvl": 2, "name": "Nkonya Ahenkro", "x_coord": 0.316667, "y_coord": 7.116667, "adm3_name": "<Null>", "adm3_pcode": "<Null>", "adm2_name": "Biakoye", "adm2_pcode": "GH1001", "adm1_name": "Oti", "adm1_pcode": "GH10", "adm0_name": "Ghana", "adm0_pcode": "GH", "valid_on": "20210308", "version": "v01"}}, {"type": "Feature", "geometry": {"type": "Point", "coordinates": [-0.783333, 5.366667]}, "properties": {"adm_p_lvl": 2, "name": "Nkoranza", "x_coord": -0.783333, "y_coord": 5.366667, "adm3_name": "<Null>", "adm3_pcode": "<Null>", "adm2_name": "Gomoa West", "adm2_pcode": "GH0516", "adm1_name": "Central", "adm1_pcode": "GH05", "adm0_name": "Ghana", "adm0_pcode": "GH", "valid_on": "20210308", "version": "v01"}}, {"type": "Feature", "geometry": {"type": "Point", "coordinates": [0.516667, 8.266667]}, "properties": {"adm_p_lvl": 2, "name": "Nkwanta", "x_coord": 0.516667, "y_coord": 8.266667, "adm3_name": "<Null>", "adm3_pcode": "<Null>", "adm2_name": "Nkwanta South Municipal", "adm2_pcode": "GH1008", "adm1_name": "Oti", "adm1_pcode": "GH10", "adm0_name": "Ghana", "adm0_pcode": "GH", "valid_on": "20210308", "version": "v01"}}, {"type": "Feature", "geometry": {"type": "Point", "coordinates": [-0.75, 5.65]}, "properties": {"adm_p_lvl": 2, "name": "Nsaba", "x_coord": -0.75, "y_coord": 5.65, "adm3_name": "<Null>", "adm3_pcode": "<Null>", "adm2_name": "Agona East", "adm2_pcode": "GH0502", "adm1_name": "Central", "adm1_pcode": "GH05", "adm0_name": "Ghana", "adm0_pcode": "GH", "valid_on": "20210308", "version": "v01"}}, {"type": "Feature", "geometry": {"type": "Point", "coordinates": [-0.35, 5.8]}, "properties": {"adm_p_lvl": 2, "name": "Nsawam", "x_coord": -0.35, "y_coord": 5.8, "adm3_name": "<Null>", "adm3_pcode": "<Null>", "adm2_name": "Nsawam Adoagyiri", "adm2_pcode": "GH0627", "adm1_name": "Eastern", "adm1_pcode": "GH06", "adm0_name": "Ghana", "adm0_pcode": "GH", "valid_on": "20210308", "version": "v01"}}, {"type": "Feature", "geometry": {"type": "Point", "coordinates": [-2.316667, 7.866667]}, "properties": {"adm_p_lvl": 2, "name": "Nsawkaw", "x_coord": -2.316667, "y_coord": 7.866667, "adm3_name": "<Null>", "adm3_pcode": "<Null>", "adm2_name": "Tain", "adm2_pcode": "GH0311", "adm1_name": "Bono", "adm1_pcode": "GH03", "adm0_name": "Ghana", "adm0_pcode": "GH", "valid_on": "20210308", "version": "v01"}}, {"type": "Feature", "geometry": {"type": "Point", "coordinates": [-1.383333, 7.016667]}, "properties": {"adm_p_lvl": 2, "name": "Nsuta", "x_coord": -1.383333, "y_coord": 7.016667, "adm3_name": "<Null>", "adm3_pcode": "<Null>", "adm2_name": "Sekyere Central", "adm2_pcode": "GH0239", "adm1_name": "Ashanti", "adm1_pcode": "GH02", "adm0_name": "Ghana", "adm0_pcode": "GH", "valid_on": "20210308", "version": "v01"}}, {"type": "Feature", "geometry": {"type": "Point", "coordinates": [-0.066667, 5.6]}, "properties": {"adm_p_lvl": 2, "name": "Nungoa", "x_coord": -0.066667, "y_coord": 5.6, "adm3_name": "<Null>", "adm3_pcode": "<Null>", "adm2_name": "Krowor Municipal", "adm2_pcode": "GH0720", "adm1_name": "Greater Accra", "adm1_pcode": "GH07", "adm0_name": "Ghana", "adm0_pcode": "GH", "valid_on": "20210308", "version": "v01"}}, {"type": "Feature", "geometry": {"type": "Point", "coordinates": [-2.116667, 6.6]}, "properties": {"adm_p_lvl": 2, "name": "Nyinahan", "x_coord": -2.116667, "y_coord": 6.6, "adm3_name": "<Null>", "adm3_pcode": "<Null>", "adm2_name": "Atwima Mponua", "adm2_pcode": "GH0219", "adm1_name": "Ashanti", "adm1_pcode": "GH02", "adm0_name": "Ghana", "adm0_pcode": "GH", "valid_on": "20210308", "version": "v01"}}, {"type": "Feature", "geometry": {"type": "Point", "coordinates": [-1.683333, 6.916667]}, "properties": {"adm_p_lvl": 2, "name": "Obuasi", "x_coord": -1.683333, "y_coord": 6.916667, "adm3_name": "<Null>", "adm3_pcode": "<Null>", "adm2_name": "Offinso Municipal", "adm2_pcode": "GH0234", "adm1_name": "Ashanti", "adm1_pcode": "GH02", "adm0_name": "Ghana", "adm0_pcode": "GH", "valid_on": "20210308", "version": "v01"}}, {"type": "Feature", "geometry": {"type": "Point", "coordinates": [-0.1, 7.05]}, "properties": {"adm_p_lvl": 2, "name": "Odonkawkrom", "x_coord": -0.1, "y_coord": 7.05, "adm3_name": "<Null>", "adm3_pcode": "<Null>", "adm2_name": "Kwahu Afram Plains North", "adm2_pcode": "GH0619", "adm1_name": "Eastern", "adm1_pcode": "GH06", "adm0_name": "Ghana", "adm0_pcode": "GH", "valid_on": "20210308", "version": "v01"}}, {"type": "Feature", "geometry": {"type": "Point", "coordinates": [-0.016667, 6.133333]}, "properties": {"adm_p_lvl": 2, "name": "Odumase", "x_coord": -0.016667, "y_coord": 6.133333, "adm3_name": "<Null>", "adm3_pcode": "<Null>", "adm2_name": "Lower Manya", "adm2_pcode": "GH0624", "adm1_name": "Eastern", "adm1_pcode": "GH06", "adm0_name": "Ghana", "adm0_pcode": "GH", "valid_on": "20210308", "version": "v01"}}, {"type": "Feature", "geometry": {"type": "Point", "coordinates": [-1.65, 6.9]}, "properties": {"adm_p_lvl": 2, "name": "Ofinso", "x_coord": -1.65, "y_coord": 6.9, "adm3_name": "<Null>", "adm3_pcode": "<Null>", "adm2_name": "Offinso Municipal", "adm2_pcode": "GH0234", "adm1_name": "Ashanti", "adm1_pcode": "GH02", "adm0_name": "Ghana", "adm0_pcode": "GH", "valid_on": "20210308", "version": "v01"}}, {"type": "Feature", "geometry": {"type": "Point", "coordinates": [-1.15, 6.166667]}, "properties": {"adm_p_lvl": 2, "name": "Ofoase", "x_coord": -1.15, "y_coord": 6.166667, "adm3_name": "<Null>", "adm3_pcode": "<Null>", "adm2_name": "Akyem Mansa", "adm2_pcode": "GH0606", "adm1_name": "Eastern", "adm1_pcode": "GH06", "adm0_name": "Ghana", "adm0_pcode": "GH", "valid_on": "20210308", "version": "v01"}}, {"type": "Feature", "geometry": {"type": "Point", "coordinates": [-1.113333, 10.992222]}, "properties": {"adm_p_lvl": 2, "name": "Paga", "x_coord": -1.113333, "y_coord": 10.992222, "adm3_name": "<Null>", "adm3_pcode": "<Null>", "adm2_name": "Kasena Nankana West", "adm2_pcode": "GH1211", "adm1_name": "Upper East", "adm1_pcode": "GH12", "adm0_name": "Ghana", "adm0_pcode": "GH", "valid_on": "20210308", "version": "v01"}}, {"type": "Feature", "geometry": {"type": "Point", "coordinates": [0.322222, 9.7175]}, "properties": {"adm_p_lvl": 2, "name": "Saboba", "x_coord": 0.322222, "y_coord": 9.7175, "adm3_name": "<Null>", "adm3_pcode": "<Null>", "adm2_name": "Saboba", "adm2_pcode": "GH0809", "adm1_name": "Northern", "adm1_pcode": "GH08", "adm0_name": "Ghana", "adm0_pcode": "GH", "valid_on": "20210308", "version": "v01"}}, {"type": "Feature", "geometry": {"type": "Point", "coordinates": [-0.516667, 8.55]}, "properties": {"adm_p_lvl": 2, "name": "Salaga", "x_coord": -0.516667, "y_coord": 8.55, "adm3_name": "<Null>", "adm3_pcode": "<Null>", "adm2_name": "North East Gonja", "adm2_pcode": "GH1104", "adm1_name": "Savannah", "adm1_pcode": "GH11", "adm0_name": "Ghana", "adm0_pcode": "GH", "valid_on": "20210308", "version": "v01"}}, {"type": "Feature", "geometry": {"type": "Point", "coordinates": [-1.066667, 5.2]}, "properties": {"adm_p_lvl": 2, "name": "Saltpond", "x_coord": -1.066667, "y_coord": 5.2, "adm3_name": "<Null>", "adm3_pcode": "<Null>", "adm2_name": "Mfantseman Municipal", "adm2_pcode": "GH0518", "adm1_name": "Central", "adm1_pcode": "GH05", "adm0_name": "Ghana", "adm0_pcode": "GH", "valid_on": "20210308", "version": "v01"}}, {"type": "Feature", "geometry": {"type": "Point", "coordinates": [-2.7, 7.95]}, "properties": {"adm_p_lvl": 2, "name": "Sampa", "x_coord": -2.7, "y_coord": 7.95, "adm3_name": "<Null>", "adm3_pcode": "<Null>", "adm2_name": "Jaman North", "adm2_pcode": "GH0307", "adm1_name": "Bono", "adm1_pcode": "GH03", "adm0_name": "Ghana", "adm0_pcode": "GH", "valid_on": "20210308", "version": "v01"}}, {"type": "Feature", "geometry": {"type": "Point", "coordinates": [-1.290556, 10.734722]}, "properties": {"adm_p_lvl": 2, "name": "Sandema Central", "x_coord": -1.290556, "y_coord": 10.734722, "adm3_name": "<Null>", "adm3_pcode": "<Null>", "adm2_name": "Builsa North", "adm2_pcode": "GH1207", "adm1_name": "Upper East", "adm1_pcode": "GH12", "adm0_name": "Ghana", "adm0_pcode": "GH", "valid_on": "20210308", "version": "v01"}}, {"type": "Feature", "geometry": {"type": "Point", "coordinates": [0.366667, 9.283333]}, "properties": {"adm_p_lvl": 2, "name": "Sansugu", "x_coord": 0.366667, "y_coord": 9.283333, "adm3_name": "<Null>", "adm3_pcode": "<Null>", "adm2_name": "Zabzugu", "adm2_pcode": "GH0816", "adm1_name": "Northern", "adm1_pcode": "GH08", "adm0_name": "Ghana", "adm0_pcode": "GH", "valid_on": "20210308", "version": "v01"}}, {"type": "Feature", "geometry": {"type": "Point", "coordinates": [-0.827778, 9.624722]}, "properties": {"adm_p_lvl": 2, "name": "Savelugu", "x_coord": -0.827778, "y_coord": 9.624722, "adm3_name": "<Null>", "adm3_pcode": "<Null>", "adm2_name": "Savelugu", "adm2_pcode": "GH0811", "adm1_name": "Northern", "adm1_pcode": "GH08", "adm0_name": "Ghana", "adm0_pcode": "GH", "valid_on": "20210308", "version": "v01"}}, {"type": "Feature", "geometry": {"type": "Point", "coordinates": [-2.416667, 9.283333]}, "properties": {"adm_p_lvl": 2, "name": "Sawla", "x_coord": -2.416667, "y_coord": 9.283333, "adm3_name": "<Null>", "adm3_pcode": "<Null>", "adm2_name": "Sawla-Tuna-Kalba", "adm2_pcode": "GH1106", "adm1_name": "Savannah", "adm1_pcode": "GH11", "adm0_name": "Ghana", "adm0_pcode": "GH", "valid_on": "20210308", "version": "v01"}}, {"type": "Feature", "geometry": {"type": "Point", "coordinates": [-2.041552, 4.853057]}, "properties": {"adm_p_lvl": 1, "name": "Sekondi", "x_coord": -2.041552, "y_coord": 4.853057, "adm3_name": "<Null>", "adm3_pcode": "<Null>", "adm2_name": "Ahanta West Municipal", "adm2_pcode": "GH1501", "adm1_name": "Western", "adm1_pcode": "GH15", "adm0_name": "Ghana", "adm0_pcode": "GH", "valid_on": "20210308", "version": "v01"}}, {"type": "Feature", "geometry": {"type": "Point", "coordinates": [-1.65, 5.0]}, "properties": {"adm_p_lvl": 2, "name": "Shama", "x_coord": -1.65, "y_coord": 5.0, "adm3_name": "<Null>", "adm3_pcode": "<Null>", "adm2_name": "Shama", "adm2_pcode": "GH1509", "adm1_name": "Western", "adm1_pcode": "GH15", "adm0_name": "Ghana", "adm0_pcode": "GH", "valid_on": "20210308", "version": "v01"}}, {"type": "Feature", "geometry": {"type": "Point", "coordinates": [0.6, 6.0]}, "properties": {"adm_p_lvl": 2, "name": "Sogakofe", "x_coord": 0.6, "y_coord": 6.0, "adm3_name": "<Null>", "adm3_pcode": "<Null>", "adm2_name": "South Tongu", "adm2_pcode": "GH1418", "adm1_name": "Volta", "adm1_pcode": "GH14", "adm0_name": "Ghana", "adm0_pcode": "GH", "valid_on": "20210308", "version": "v01"}}, {"type": "Feature", "geometry": {"type": "Point", "coordinates": [-0.016667, 6.1]}, "properties": {"adm_p_lvl": 2, "name": "Somanya", "x_coord": -0.016667, "y_coord": 6.1, "adm3_name": "<Null>", "adm3_pcode": "<Null>", "adm2_name": "Yilo Krobo", "adm2_pcode": "GH0633", "adm1_name": "Eastern", "adm1_pcode": "GH06", "adm0_name": "Ghana", "adm0_pcode": "GH", "valid_on": "20210308", "version": "v01"}}, {"type": "Feature", "geometry": {"type": "Point", "coordinates": [-0.45, 6.033333]}, "properties": {"adm_p_lvl": 2, "name": "Suhum", "x_coord": -0.45, "y_coord": 6.033333, "adm3_name": "<Null>", "adm3_pcode": "<Null>", "adm2_name": "Suhum Municipal", "adm2_pcode": "GH0629", "adm1_name": "Eastern", "adm1_pcode": "GH06", "adm0_name": "Ghana", "adm0_pcode": "GH", "valid_on": "20210308", "version": "v01"}}, {"type": "Feature", "geometry": {"type": "Point", "coordinates": [-2.5, 5.983333]}, "properties": {"adm_p_lvl": 2, "name": "Suhuma", "x_coord": -2.5, "y_coord": 5.983333, "adm3_name": "<Null>", "adm3_pcode": "<Null>", "adm2_name": "Wassa Amenfi West", "adm2_pcode": "GH1513", "adm1_name": "Western", "adm1_pcode": "GH15", "adm0_name": "Ghana", "adm0_pcode": "GH", "valid_on": "20210308", "version": "v01"}}, {"type": "Feature", "geometry": {"type": "Point", "coordinates": [-2.333333, 7.333333]}, "properties": {"adm_p_lvl": 1, "name": "Sunyani", "x_coord": -2.333333, "y_coord": 7.333333, "adm3_name": "<Null>", "adm3_pcode": "<Null>", "adm2_name": "Sunyani Municipal", "adm2_pcode": "GH0309", "adm1_name": "Bono", "adm1_pcode": "GH03", "adm0_name": "Ghana", "adm0_pcode": "GH", "valid_on": "20210308", "version": "v01"}}, {"type": "Feature", "geometry": {"type": "Point", "coordinates": [-1.933333, 7.583333]}, "properties": {"adm_p_lvl": 2, "name": "Takyiman", "x_coord": -1.933333, "y_coord": 7.583333, "adm3_name": "<Null>", "adm3_pcode": "<Null>", "adm2_name": "Techiman Municipal", "adm2_pcode": "GH0410", "adm1_name": "Bono East", "adm1_pcode": "GH04", "adm0_name": "Ghana", "adm0_pcode": "GH", "valid_on": "20210308", "version": "v01"}}, {"type": "Feature", "geometry": {"type": "Point", "coordinates": [-0.833333, 9.4]}, "properties": {"adm_p_lvl": 1, "name": "Tamale", "x_coord": -0.833333, "y_coord": 9.4, "adm3_name": "<Null>", "adm3_pcode": "<Null>", "adm2_name": "Tamale Metropolitan", "adm2_pcode": "GH0812", "adm1_name": "Northern", "adm1_pcode": "GH08", "adm0_name": "Ghana", "adm0_pcode": "GH", "valid_on": "20210308", "version": "v01"}}, {"type": "Feature", "geometry": {"type": "Point", "coordinates": [-1.983333, 5.3]}, "properties": {"adm_p_lvl": 2, "name": "Tarkwa", "x_coord": -1.983333, "y_coord": 5.3, "adm3_name": "<Null>", "adm3_pcode": "<Null>", "adm2_name": "Tarkwa Nsuaem", "adm2_pcode": "GH1510", "adm1_name": "Western", "adm1_pcode": "GH15", "adm0_name": "Ghana", "adm0_pcode": "GH", "valid_on": "20210308", "version": "v01"}}, {"type": "Feature", "geometry": {"type": "Point", "coordinates": [-2.166667, 7.0]}, "properties": {"adm_p_lvl": 2, "name": "Tepa", "x_coord": -2.166667, "y_coord": 7.0, "adm3_name": "<Null>", "adm3_pcode": "<Null>", "adm2_name": "Ahafo Ano North", "adm2_pcode": "GH0207", "adm1_name": "Ashanti", "adm1_pcode": "GH02", "adm0_name": "Ghana", "adm0_pcode": "GH", "valid_on": "20210308", "version": "v01"}}, {"type": "Feature", "geometry": {"type": "Point", "coordinates": [-1.066667, 9.433333]}, "properties": {"adm_p_lvl": 2, "name": "Tolon", "x_coord": -1.066667, "y_coord": 9.433333, "adm3_name": "<Null>", "adm3_pcode": "<Null>", "adm2_name": "Tolon", "adm2_pcode": "GH0814", "adm1_name": "Northern", "adm1_pcode": "GH08", "adm0_name": "Ghana", "adm0_pcode": "GH", "valid_on": "20210308", "version": "v01"}}, {"type": "Feature", "geometry": {"type": "Point", "coordinates": [-0.8, 10.733333]}, "properties": {"adm_p_lvl": 2, "name": "Tongo Bari", "x_coord": -0.8, "y_coord": 10.733333, "adm3_name": "<Null>", "adm3_pcode": "<Null>", "adm2_name": "Talensi", "adm2_pcode": "GH1214", "adm1_name": "Upper East", "adm1_pcode": "GH12", "adm0_name": "Ghana", "adm0_pcode": "GH", "valid_on": "20210308", "version": "v01"}}, {"type": "Feature", "geometry": {"type": "Point", "coordinates": [-1.985556, 10.877222]}, "properties": {"adm_p_lvl": 2, "name": "Tumu", "x_coord": -1.985556, "y_coord": 10.877222, "adm3_name": "<Null>", "adm3_pcode": "<Null>", "adm2_name": "Sissala East", "adm2_pcode": "GH1307", "adm1_name": "Upper West", "adm1_pcode": "GH13", "adm0_name": "Ghana", "adm0_pcode": "GH", "valid_on": "20210308", "version": "v01"}}, {"type": "Feature", "geometry": {"type": "Point", "coordinates": [-1.55, 5.616667]}, "properties": {"adm_p_lvl": 2, "name": "Twifu Praso", "x_coord": -1.55, "y_coord": 5.616667, "adm3_name": "<Null>", "adm3_pcode": "<Null>", "adm2_name": "Twifo Atti-Morkwa", "adm2_pcode": "GH0519", "adm1_name": "Central", "adm1_pcode": "GH05", "adm0_name": "Ghana", "adm0_pcode": "GH", "valid_on": "20210308", "version": "v01"}}, {"type": "Feature", "geometry": {"type": "Point", "coordinates": [-2.483333, 10.05]}, "properties": {"adm_p_lvl": 1, "name": "Wa", "x_coord": -2.483333, "y_coord": 10.05, "adm3_name": "<Null>", "adm3_pcode": "<Null>", "adm2_name": "Wa Municipal", "adm2_pcode": "GH1310", "adm1_name": "Upper West", "adm1_pcode": "GH13", "adm0_name": "Ghana", "adm0_pcode": "GH", "valid_on": "20210308", "version": "v01"}}, {"type": "Feature", "geometry": {"type": "Point", "coordinates": [-0.8, 10.35]}, "properties": {"adm_p_lvl": 2, "name": "Walewale", "x_coord": -0.8, "y_coord": 10.35, "adm3_name": "<Null>", "adm3_pcode": "<Null>", "adm2_name": "West Mamprusi Municipal", "adm2_pcode": "GH0905", "adm1_name": "Northern East", "adm1_pcode": "GH09", "adm0_name": "Ghana", "adm0_pcode": "GH", "valid_on": "20210308", "version": "v01"}}, {"type": "Feature", "geometry": {"type": "Point", "coordinates": [-2.683333, 9.833333]}, "properties": {"adm_p_lvl": 2, "name": "Wechiau", "x_coord": -2.683333, "y_coord": 9.833333, "adm3_name": "<Null>", "adm3_pcode": "<Null>", "adm2_name": "Wa West", "adm2_pcode": "GH1311", "adm1_name": "Upper West", "adm1_pcode": "GH13", "adm0_name": "Ghana", "adm0_pcode": "GH", "valid_on": "20210308", "version": "v01"}}, {"type": "Feature", "geometry": {"type": "Point", "coordinates": [-0.333333, 5.566667]}, "properties": {"adm_p_lvl": 2, "name": "Weija", "x_coord": -0.333333, "y_coord": 5.566667, "adm3_name": "<Null>", "adm3_pcode": "<Null>", "adm2_name": "Weija Gbawe Municipal", "adm2_pcode": "GH0729", "adm1_name": "Greater Accra", "adm1_pcode": "GH07", "adm0_name": "Ghana", "adm0_pcode": "GH", "valid_on": "20210308", "version": "v01"}}, {"type": "Feature", "geometry": {"type": "Point", "coordinates": [-2.1, 7.733333]}, "properties": {"adm_p_lvl": 2, "name": "Wenchi", "x_coord": -2.1, "y_coord": 7.733333, "adm3_name": "<Null>", "adm3_pcode": "<Null>", "adm2_name": "Wenchi Municipal", "adm2_pcode": "GH0312", "adm1_name": "Bono", "adm1_pcode": "GH03", "adm0_name": "Ghana", "adm0_pcode": "GH", "valid_on": "20210308", "version": "v01"}}, {"type": "Feature", "geometry": {"type": "Point", "coordinates": [-2.483333, 6.2]}, "properties": {"adm_p_lvl": 2, "name": "Wiawoso", "x_coord": -2.483333, "y_coord": 6.2, "adm3_name": "<Null>", "adm3_pcode": "<Null>", "adm2_name": "Sefwi-Wiawso", "adm2_pcode": "GH1608", "adm1_name": "Western North", "adm1_pcode": "GH16", "adm0_name": "Ghana", "adm0_pcode": "GH", "valid_on": "20210308", "version": "v01"}}, {"type": "Feature", "geometry": {"type": "Point", "coordinates": [0.016667, 8.65]}, "properties": {"adm_p_lvl": 2, "name": "Wulenchi", "x_coord": 0.016667, "y_coord": 8.65, "adm3_name": "<Null>", "adm3_pcode": "<Null>", "adm2_name": "Nanumba South", "adm2_pcode": "GH0808", "adm1_name": "Northern", "adm1_pcode": "GH08", "adm0_name": "Ghana", "adm0_pcode": "GH", "valid_on": "20210308", "version": "v01"}}, {"type": "Feature", "geometry": {"type": "Point", "coordinates": [-0.65, 8.216667]}, "properties": {"adm_p_lvl": 2, "name": "Yeji", "x_coord": -0.65, "y_coord": 8.216667, "adm3_name": "<Null>", "adm3_pcode": "<Null>", "adm2_name": "Pru East", "adm2_pcode": "GH0406", "adm1_name": "Bono East", "adm1_pcode": "GH04", "adm0_name": "Ghana", "adm0_pcode": "GH", "valid_on": "20210308", "version": "v01"}}, {"type": "Feature", "geometry": {"type": "Point", "coordinates": [-0.516944, 10.915556]}, "properties": {"adm_p_lvl": 2, "name": "Zebila", "x_coord": -0.516944, "y_coord": 10.915556, "adm3_name": "<Null>", "adm3_pcode": "<Null>", "adm2_name": "Bawku West", "adm2_pcode": "GH1202", "adm1_name": "Upper East", "adm1_pcode": "GH12", "adm0_name": "Ghana", "adm0_pcode": "GH", "valid_on": "20210308", "version": "v01"}}]}